{"type": "FeatureCollection", "features": [ {"type": "Feature", "properties": {"norad_id": 33980, "name": "COSMOS 2251 DEB", "group": "cosmos-2251-debris", "lat": -58.86543906833498, "lon": 8.839413564394635, "alt_km": 713.0198243321238, "timestamp": "2025-12-24T09:46:31.398055+00:00", "meta": {"OBJECT_NAME": "COSMOS 2251 DEB", "OBJECT_ID": "1993-036FP", "EPOCH": "2025-12-24T03:46:09.094944", "MEAN_MOTION": 14.58711483, "ECCENTRICITY": 0.0027973, "INCLINATION": 74.0206, "RA_OF_ASC_NODE": 37.6342, "ARG_OF_PERICENTER": 180.7475, "MEAN_ANOMALY": 242.4429, "EPHEMERIS_TYPE": 0, "CLASSIFICATION_TYPE": "U", "NORAD_CAT_ID": 33980, "ELEMENT_SET_NO": 999, "REV_AT_EPOCH": 88961, "BSTAR": 0.00057665, "MEAN_MOTION_DOT": 2.676e-05, "MEAN_MOTION_DDOT": 0}, "tle": {"line1": "1 33980U 93036FP  25358.15704971  .00002676  00000+0  57665-3 0  9993", "line2": "2 33980  74.0206  37.6342 0027973 180.7475 242.4429 14.58711483889610"}}, "geometry": {"type": "Point", "coordinates": [8.839413564394635, -58.86543906833498]}}, {"type": "Feature", "properties": {"norad_id": 33982, "name": "COSMOS 2251 DEB", "group": "cosmos-2251-debris", "lat": -34.76999775965916, "lon": 169.14243925531198, "alt_km": 749.1307723741138, "timestamp": "2025-12-24T09:46:31.398065+00:00", "meta": {"OBJECT_NAME": "COSMOS 2251 DEB", "OBJECT_ID": "1993-036FR", "EPOCH": "2025-12-24T00:50:10.202784", "MEAN_MOTION": 14.60260109, "ECCENTRICITY": 0.0075466, "INCLINATION": 74.0712, "RA_OF_ASC_NODE": 338.416, "ARG_OF_PERICENTER": 19.7417, "MEAN_ANOMALY": 39.5623, "EPHEMERIS_TYPE": 0, "CLASSIFICATION_TYPE": "U", "NORAD_CAT_ID": 33982, "ELEMENT_SET_NO": 999, "REV_AT_EPOCH": 89324, "BSTAR": 0.00054649, "MEAN_MOTION_DOT": 2.715e-05, "MEAN_MOTION_DDOT": 0}, "tle": {"line1": "1 33982U 93036FR  25358.03484031  .00002715  00000+0  54649-3 0  9997", "line2": "2 33982  74.0712 338.4160 0075466  19.7417  39.5623 14.60260109893243"}}, "geometry": {"type": "Point", "coordinates": [169.14243925531198, -34.76999775965916]}}, {"type": "Feature", "properties": {"norad_id": 33983, "name": "COSMOS 2251 DEB", "group": "cosmos-2251-debris", "lat": 66.17802652362636, "lon": -95.24241729751155, "alt_km": 723.7714146710387, "timestamp": "2025-12-24T09:46:31.398076+00:00", "meta": {"OBJECT_NAME": "COSMOS 2251 DEB", "OBJECT_ID": "1993-036FS", "EPOCH": "2025-12-24T03:28:24.152736", "MEAN_MOTION": 14.50715974, "ECCENTRICITY": 0.0021148, "INCLINATION": 74.0495, "RA_OF_ASC_NODE": 125.6244, "ARG_OF_PERICENTER": 227.4966, "MEAN_ANOMALY": 309.7985, "EPHEMERIS_TYPE": 0, "CLASSIFICATION_TYPE": "U", "NORAD_CAT_ID": 33983, "ELEMENT_SET_NO": 999, "REV_AT_EPOCH": 88794, "BSTAR": 0.00053265, "MEAN_MOTION_DOT": 2.073e-05, "MEAN_MOTION_DDOT": 0}, "tle": {"line1": "1 33983U 93036FS  25358.14472399  .00002073  00000+0  53265-3 0  9994", "line2": "2 33983  74.0495 125.6244 0021148 227.4966 309.7985 14.50715974887943"}}, "geometry": {"type": "Point", "coordinates": [-95.24241729751155, 66.17802652362636]}}, {"type": "Feature", "properties": {"norad_id": 33984, "name": "COSMOS 2251 DEB", "group": "cosmos-2251-debris", "lat": 25.254641392036444, "lon": 136.79644369831274, "alt_km": 655.4942222928394, "timestamp": "2025-12-24T09:46:31.398086+00:00", "meta": {"OBJECT_NAME": "COSMOS 2251 DEB", "OBJECT_ID": "1993-036FT", "EPOCH": "2025-12-23T15:52:13.269216", "MEAN_MOTION": 14.66452044, "ECCENTRICITY": 0.00225017, "INCLINATION": 74.0098, "RA_OF_ASC_NODE": 326.0106, "ARG_OF_PERICENTER": 160.8897, "MEAN_ANOMALY": 15.7718, "EPHEMERIS_TYPE": 0, "CLASSIFICATION_TYPE": "U", "NORAD_CAT_ID": 33984, "ELEMENT_SET_NO": 999, "REV_AT_EPOCH": 89226, "BSTAR": 0.00084302871, "MEAN_MOTION_DOT": 4.656e-05, "MEAN_MOTION_DDOT": 0}, "tle": {"line1": "1 33984U 93036FT  25357.66126469  .00004656  00000+0  84303-3 0  9991", "line2": "2 33984  74.0098 326.0106 0022501 160.8897  15.7718 14.66452044892266"}}, "geometry": {"type": "Point", "coordinates": [136.79644369831274, 25.254641392036444]}}, {"type": "Feature", "properties": {"norad_id": 33986, "name": "COSMOS 2251 DEB", "group": "cosmos-2251-debris", "lat": -73.84014354305573, "lon": -177.93354490035875, "alt_km": 751.3876657076207, "timestamp": "2025-12-24T09:46:31.398096+00:00", "meta": {"OBJECT_NAME": "COSMOS 2251 DEB", "OBJECT_ID": "1993-036FV", "EPOCH": "2025-12-23T13:25:15.274848", "MEAN_MOTION": 14.43253125, "ECCENTRICITY": 0.00410056, "INCLINATION": 74.036, "RA_OF_ASC_NODE": 282.5752, "ARG_OF_PERICENTER": 352.9852, "MEAN_ANOMALY": 190.2778, "EPHEMERIS_TYPE": 0, "CLASSIFICATION_TYPE": "U", "NORAD_CAT_ID": 33986, "ELEMENT_SET_NO": 999, "REV_AT_EPOCH": 88184, "BSTAR": 0.00062069849, "MEAN_MOTION_DOT": 2.084e-05, "MEAN_MOTION_DDOT": 0}, "tle": {"line1": "1 33986U 93036FV  25357.55920457  .00002084  00000+0  62070-3 0  9990", "line2": "2 33986  74.0360 282.5752 0041005 352.9852 190.2778 14.43253125881849"}}, "geometry": {"type": "Point", "coordinates": [-177.93354490035875, -73.84014354305573]}}, {"type": "Feature", "properties": {"norad_id": 33990, "name": "COSMOS 2251 DEB", "group": "cosmos-2251-debris", "lat": 10.880440676159443, "lon": -89.56069532803681, "alt_km": 1039.5763223152562, "timestamp": "2025-12-24T09:46:31.398107+00:00", "meta": {"OBJECT_NAME": "COSMOS 2251 DEB", "OBJECT_ID": "1993-036FZ", "EPOCH": "2025-12-24T03:13:24.485088", "MEAN_MOTION": 13.50013115, "ECCENTRICITY": 0.0407337, "INCLINATION": 73.9284, "RA_OF_ASC_NODE": 267.701, "ARG_OF_PERICENTER": 285.959, "MEAN_ANOMALY": 194.5442, "EPHEMERIS_TYPE": 0, "CLASSIFICATION_TYPE": "U", "NORAD_CAT_ID": 33990, "ELEMENT_SET_NO": 999, "REV_AT_EPOCH": 82883, "BSTAR": 0.00074822, "MEAN_MOTION_DOT": 7.73e-06, "MEAN_MOTION_DDOT": 0}, "tle": {"line1": "1 33990U 93036FZ  25358.13431117  .00000773  00000+0  74822-3 0  9991", "line2": "2 33990  73.9284 267.7010 0407337 285.9590 194.5442 13.50013115828832"}}, "geometry": {"type": "Point", "coordinates": [-89.56069532803681, 10.880440676159443]}}, {"type": "Feature", "properties": {"norad_id": 33992, "name": "COSMOS 2251 DEB", "group": "cosmos-2251-debris", "lat": 8.624056958566008, "lon": -42.27943162065084, "alt_km": 656.1471650078611, "timestamp": "2025-12-24T09:46:31.398118+00:00", "meta": {"OBJECT_NAME": "COSMOS 2251 DEB", "OBJECT_ID": "1993-036GB", "EPOCH": "2025-12-24T03:14:04.985088", "MEAN_MOTION": 14.66302544, "ECCENTRICITY": 0.0051857, "INCLINATION": 74.0249, "RA_OF_ASC_NODE": 315.7559, "ARG_OF_PERICENTER": 70.1002, "MEAN_ANOMALY": 301.506, "EPHEMERIS_TYPE": 0, "CLASSIFICATION_TYPE": "U", "NORAD_CAT_ID": 33992, "ELEMENT_SET_NO": 999, "REV_AT_EPOCH": 89292, "BSTAR": 0.00085838, "MEAN_MOTION_DOT": 4.803e-05, "MEAN_MOTION_DDOT": 0}, "tle": {"line1": "1 33992U 93036GB  25358.13477992  .00004803  00000+0  85838-3 0  9991", "line2": "2 33992  74.0249 315.7559 0051857  70.1002 301.5060 14.66302544892925"}}, "geometry": {"type": "Point", "coordinates": [-42.27943162065084, 8.624056958566008]}}, {"type": "Feature", "properties": {"norad_id": 33994, "name": "COSMOS 2251 DEB", "group": "cosmos-2251-debris", "lat": -46.184407947207575, "lon": 151.46721747996298, "alt_km": 744.0468183572921, "timestamp": "2025-12-24T09:46:31.398128+00:00", "meta": {"OBJECT_NAME": "COSMOS 2251 DEB", "OBJECT_ID": "1993-036GD", "EPOCH": "2025-12-23T23:05:32.429760", "MEAN_MOTION": 14.41221297, "ECCENTRICITY": 0.0023979, "INCLINATION": 74.0415, "RA_OF_ASC_NODE": 169.642, "ARG_OF_PERICENTER": 302.0697, "MEAN_ANOMALY": 220.7652, "EPHEMERIS_TYPE": 0, "CLASSIFICATION_TYPE": "U", "NORAD_CAT_ID": 33994, "ELEMENT_SET_NO": 999, "REV_AT_EPOCH": 88581, "BSTAR": 9.0591e-05, "MEAN_MOTION_DOT": 2.67e-06, "MEAN_MOTION_DDOT": 0}, "tle": {"line1": "1 33994U 93036GD  25357.96218090  .00000267  00000+0  90591-4 0  9998", "line2": "2 33994  74.0415 169.6420 0023979 302.0697 220.7652 14.41221297885813"}}, "geometry": {"type": "Point", "coordinates": [151.46721747996298, -46.184407947207575]}}, {"type": "Feature", "properties": {"norad_id": 33995, "name": "COSMOS 2251 DEB", "group": "cosmos-2251-debris", "lat": 57.88610528802905, "lon": -109.07720516189225, "alt_km": 727.7356315690267, "timestamp": "2025-12-24T09:46:31.398139+00:00", "meta": {"OBJECT_NAME": "COSMOS 2251 DEB", "OBJECT_ID": "1993-036GE", "EPOCH": "2025-12-23T09:48:10.907712", "MEAN_MOTION": 14.34821846, "ECCENTRICITY": 0.00594034, "INCLINATION": 74.0617, "RA_OF_ASC_NODE": 99.8339, "ARG_OF_PERICENTER": 111.2187, "MEAN_ANOMALY": 249.5326, "EPHEMERIS_TYPE": 0, "CLASSIFICATION_TYPE": "U", "NORAD_CAT_ID": 33995, "ELEMENT_SET_NO": 999, "REV_AT_EPOCH": 87672, "BSTAR": 0.00081063652, "MEAN_MOTION_DOT": 2.322e-05, "MEAN_MOTION_DDOT": 0}, "tle": {"line1": "1 33995U 93036GE  25357.40845958  .00002322  00000+0  81064-3 0  9995", "line2": "2 33995  74.0617  99.8339 0059403 111.2187 249.5326 14.34821846876721"}}, "geometry": {"type": "Point", "coordinates": [-109.07720516189225, 57.88610528802905]}}, {"type": "Feature", "properties": {"norad_id": 33999, "name": "COSMOS 2251 DEB", "group": "cosmos-2251-debris", "lat": 19.84279239667556, "lon": 21.527870479081233, "alt_km": 602.0236998590563, "timestamp": "2025-12-24T09:46:31.398149+00:00", "meta": {"OBJECT_NAME": "COSMOS 2251 DEB", "OBJECT_ID": "1993-036GJ", "EPOCH": "2025-12-23T23:21:14.810112", "MEAN_MOTION": 14.8357113, "ECCENTRICITY": 0.0044475, "INCLINATION": 73.9173, "RA_OF_ASC_NODE": 208.3698, "ARG_OF_PERICENTER": 100.4293, "MEAN_ANOMALY": 260.1901, "EPHEMERIS_TYPE": 0, "CLASSIFICATION_TYPE": "U", "NORAD_CAT_ID": 33999, "ELEMENT_SET_NO": 999, "REV_AT_EPOCH": 89417, "BSTAR": 0.0011938, "MEAN_MOTION_DOT": 9.989e-05, "MEAN_MOTION_DDOT": 0}, "tle": {"line1": "1 33999U 93036GJ  25357.97308808  .00009989  00000+0  11938-2 0  9997", "line2": "2 33999  73.9173 208.3698 0044475 100.4293 260.1901 14.83571130894175"}}, "geometry": {"type": "Point", "coordinates": [21.527870479081233, 19.84279239667556]}}]}